ONEWEB-0298             
1 49087U 21075N   26019.28126173 -.00001098  00000+0 -28601-2 0  9999
2 49087  87.9082  35.4636 0001963  88.2606 271.8750 13.17654908214012
ONEWEB-0299             
1 49088U 21075P   26019.28282344  .00000030  00000+0  45193-4 0  9993
2 49088  87.9094  35.4287 0001972  94.3890 265.7466 13.17651100213994
ONEWEB-0300             
1 49089U 21075Q   26019.28937686  .00000448  00000+0  12097-2 0  9998
2 49089  87.8933  20.2149 0001976  79.0039 281.1312 13.12444943215673
ONEWEB-0301             
1 49090U 21075R   26019.04454546 -.00000002  00000+0 -41918-4 0  9997
2 49090  87.8929  20.2646 0001889  77.3559 282.7781 13.12446504215002
ONEWEB-0302             
1 49091U 21075S   26019.25971635 -.00000396  00000+0 -11358-2 0  9993
2 49091  87.8933  20.2305 0001682 100.2507 259.8811 13.12443857215018
ONEWEB-0304             
1 49092U 21075T   26019.33345417  .00000103  00000+0  23270-3 0  9997
2 49092  87.9092  35.4493 0001940  94.7785 265.3568 13.17648968213973
ONEWEB-0305             
1 49093U 21075U   26019.32671001  .00000105  00000+0  23713-3 0  9992
2 49093  87.9095  35.4287 0002202  97.1618 262.9764 13.17650017214006
ONEWEB-0308             
1 49094U 21075V   26019.25292698 -.00000380  00000+0 -10904-2 0  9990
2 49094  87.8930  20.2246 0001757  88.3137 271.8193 13.12440995215028
ONEWEB-0309             
1 49095U 21075W   26019.33007488  .00000128  00000+0  29675-3 0  9995
2 49095  87.9093  35.4433 0001662 105.4881 254.6434 13.17650589213974
ONEWEB-0310             
1 49096U 21075X   26019.26817243 -.00000466  00000+0 -13301-2 0  9991
2 49096  87.8922  20.2557 0001734  88.7007 271.4320 13.12443957215659
ONEWEB-0311             
1 49097U 21075Y   26019.10902215 -.00000026  00000+0 -10064-3 0  9995
2 49097  87.9094  35.4825 0002133  93.6659 266.4717 13.17648450213998
ONEWEB-0312             
1 49098U 21075Z   26019.04826781  .00000055  00000+0  10915-3 0  9997
2 49098  87.9082  35.5170 0002005 101.8199 258.3157 13.17651057213961
ONEWEB-0313             
1 49099U 21075AA  26019.28100507  .00000013  00000+0  85029-6 0  9990
2 49099  87.9079  35.4773 0001922  93.2626 266.8726 13.17650571213980
ONEWEB-0314             
1 49100U 21075AB  26019.32332557  .00000055  00000+0  10749-3 0  9990
2 49100  87.9096  35.4266 0002078 102.1719 257.9646 13.17650516213964
ONEWEB-0315             
1 49101U 21075AC  26019.24108803 -.00000102  00000+0 -31991-3 0  9994
2 49101  87.8934  20.2127 0002165  86.4518 273.6858 13.12442983215639
ONEWEB-0316             
1 49102U 21075AD  26019.21331505  .00000036  00000+0  57918-4 0  9991
2 49102  87.9183   5.0431 0001876  85.3903 274.7443 13.18685175217575
ONEWEB-0317             
1 49103U 21075AE  26019.24446023 -.00000304  00000+0 -88013-3 0  9996
2 49103  87.8928  20.2340 0001032  99.3724 260.7522 13.12443229215656
